CHINASAT 1C (ZX 1C)     
1 41103U 15073A   16255.06326472 -.00000163  00000-0  00000+0 0  9994
2 41103   0.0184 261.1448 0001884 310.9892 242.6403  1.00270883  2915
ELEKTRO-L 2             
1 41105U 15074A   16254.59119257 -.00000111  00000-0  00000+0 0  9998
2 41105   0.0926  78.4347 0001262  80.9002 119.5929  1.00273503  2754
COSMOS 2513             
1 41121U 15075A   16254.93501921 -.00000152  00000-0  00000-0 0  9994
2 41121   0.0475  85.8172 0001500 115.0630 206.3650  1.00272248  2842
EXPRESS-AMU1            
1 41191U 15082A   16255.18935167  .00000142  00000-0  00000+0 0  9997
2 41191   0.0107 224.8840 0002115 290.1650 299.8703  1.00269957  2757
GAOFEN 4                
1 41194U 15083A   16254.97996837 -.00000349  00000-0  00000-0 0  9999
2 41194   0.1004 231.0395 0001958  28.5343 189.3712  1.00274245  2735
BELINTERSAT-1           
1 41238U 16001A   16254.94656932  .00000093  00000-0  10000-3 0  9994
2 41238   0.0430 342.3495 0001590 142.5287 257.7721  1.00274174  2527
IRNSS-1E                
1 41241U 16003A   16252.05687068 -.00000294  00000-0  00000+0 0  9993
2 41241  28.3464 119.6434 0018482 182.8331 177.2688  1.00267166  2413
INTELSAT 29E (IS-29E)   
1 41308U 16004A   16255.16500657 -.00000295  00000-0  00000+0 0  9992
2 41308   0.0250 251.2197 0002217 267.7188 201.0834  1.00272174  2401
EUTELSAT 9B             
1 41310U 16005A   16255.00154299  .00000049  00000-0  00000+0 0  9992
2 41310   0.0520 136.2950 0001445 113.9877 109.7144  1.00272736  2358
EUTELSAT 65 WEST A      
1 41382U 16014A   16254.20980637 -.00000289  00000-0  00000+0 0  9992
2 41382   0.0493 342.9242 0001520 183.9416 193.1499  1.00274312  1885
IRNSS-1F                
1 41384U 16015A   16254.69017962  .00000141  00000-0  00000-0 0  9997
2 41384   4.7409 271.2407 0022164 186.7101 173.0857  1.00272727  1930
BEIDOU IGSO 6           
1 41434U 16021A   16254.97407061 -.00000090  00000-0  10000-3 0  9992
2 41434  55.1713  75.4803 0028690 173.4854 186.5298  1.00289107  1721
IRNSS-1G                
1 41469U 16027A   16254.42440823 -.00000351  00000-0  00000+0 0  9994
2 41469   4.8179 272.4297 0002095 225.1364 134.6808  1.00271462  1438
JCSAT-14                
1 41471U 16028A   16254.59994877 -.00000178  00000-0  00000-0 0  9997
2 41471   0.0187 235.5046 0002660 255.5853 228.9452  1.00272186  1344
THAICOM 8               
1 41552U 16031A   16254.80912117 -.00000135  00000-0  00000-0 0  9995
2 41552   0.0706  50.5972 0002011  45.5859 263.8522  1.00271333   963
INTELSAT 31 (IS-31)     
1 41581U 16035A   16254.29251566 -.00000164  00000-0  00000+0 0  9999
2 41581   0.0282 221.9942 0001335 332.1758 165.8380  1.00274402   947
BEIDOU G7               
1 41586U 16037A   16254.48323733 -.00000262  00000-0  00000-0 0  9993
2 41586   1.7066 308.6423 0003900 268.0130  91.7361  1.00269967  1035
BRISAT                  
1 41591U 16039A   16254.60971463 -.00000210  00000-0  00000+0 0  9996
2 41591   0.0199 174.4085 0002101 357.2244 188.3706  1.00270335   881
ECHOSTAR 18             
1 41592U 16039B   16255.19649551 -.00000296  00000-0  00000+0 0  9996
2 41592   0.0060 187.7118 0002163 331.2784 201.0314  1.00274988   888
